GLOBALSTAR M094         
1 39074U 13005C   25266.68169002 -.00000119  00000+0 -86023-4 0  9990
2 39074  51.9945 242.2305 0000578  86.8019 273.2914 12.62269924584815
GLOBALSTAR M096         
1 39075U 13005D   25266.37813424 -.00000086  00000+0  99199-4 0  9991
2 39075  52.0069 291.7476 0000609  98.7532 261.3404 12.62267087583695
GLOBALSTAR M078         
1 39076U 13005E   25266.58963341 -.00000212  00000+0 -60137-3 0  9990
2 39076  51.9905  15.4794 0001293  63.5664 296.5335 12.62258744582347
GLOBALSTAR M095         
1 39077U 13005F   25266.61562565 -.00000094  00000+0  54739-4 0  9997
2 39077  52.0110  12.6248 0001125  92.1265 267.9731 12.62259887582206
GLOBALSTAR M087         
1 52888U 22064A   25266.94609034 -.00000071  00000+0  18128-3 0  9992
2 52888  51.9984 153.0144 0000908  77.8525 282.2443 12.62288695157511
